0 COSMOS 2251 DEB
1 34684U 93036YE  13282.14955868  .00066422  00000-0  61223-2 0  4067
2 34684 073.9744 338.4215 0050003 137.5436 255.9420 14.93375914245929
0 COSMOS 2251 DEB
1 34684U 93036YE  13282.95896860  .00056649  00000-0  52173-2 0  4077
2 34684 073.9747 336.7866 0049792 135.7102 287.6079 14.93471322246044
0 COSMOS 2251 DEB
1 34684U 93036YE  13283.55015961  .00140085  00000-0  12951-1 0  4098
2 34684 073.9777 335.5957 0050290 134.4006 226.1820 14.93536660246138
0 COSMOS 2251 DEB
1 34684U 93036YE  13283.84069591  .00061796  00000-0  56772-2 0  4088
2 34684 073.9749 335.0057 0049584 133.6629 348.3976 14.93546968246174
0 COSMOS 2251 DEB
1 34684U 93036YE  13283.96362214  .00050324  00000-0  46300-2 0  4091
2 34684 073.9748 334.7577 0049575 133.3802 289.3541 14.93557313246196
0 COSMOS 2251 DEB
1 34684U 93036YE  13286.32007336  .00039197  00000-0  35971-2 0  4115
2 34684 073.9749 329.9977 0049080 127.7787 000.6387 14.93743816246543
0 COSMOS 2251 DEB
1 34684U 93036YE  13287.32429439  .00044209  00000-0  40472-2 0  4121
2 34684 073.9747 327.9688 0048995 125.3660 001.1016 14.93811195246693
0 COSMOS 2251 DEB
1 34684U 93036YE  13287.59871907  .00059774  00000-0  54555-2 0  4132
2 34684 073.9748 327.4140 0048930 124.7346 036.9085 14.93840509246733
0 COSMOS 2251 DEB
1 34684U 93036YE  13288.18287583  .00078501  00000-0  71319-2 0  4146
2 34684 073.9746 326.2337 0048780 123.3514 298.5491 14.93920576246821
0 COSMOS 2251 DEB
1 34684U 93036YE  13289.11459613  .00064300  00000-0  58365-2 0  4154
2 34684 073.9740 324.3506 0048763 121.1279 269.7821 14.94035445246962
0 COSMOS 2251 DEB
1 34684U 93036YE  13289.53940605  .00066208  00000-0  60069-2 0  4160
2 34684 073.9742 323.4926 0048347 120.0845 034.7532 14.94058754247020
0 COSMOS 2251 DEB
1 34684U 93036YE  13290.12422492  .00056493  00000-0  51244-2 0  4177
2 34684 073.9734 322.3096 0048403 118.6806 300.4215 14.94120087247110
0 COSMOS 2251 DEB
1 34684U 93036YE  13291.12769269  .00050248  00000-0  45505-2 0  4180
2 34684 073.9734 320.2813 0048400 116.3270 298.1839 14.94220884247268
0 COSMOS 2251 DEB
1 34684U 93036YE  13292.13208774  .00046869  00000-0  42379-2 0  4192
2 34684 073.9733 318.2503 0048239 113.9011 301.3498 14.94307780247412
0 COSMOS 2251 DEB
1 34684U 93036YE  13293.48271132  .00055791  00000-0  50233-2 0  4203
2 34684 073.9734 315.5181 0048201 110.8203 007.3885 14.94421764247617
0 COSMOS 2251 DEB
1 34684U 93036YE  13294.49268060  .00062369  00000-0  55988-2 0  4213
2 34684 073.9735 313.4753 0048146 108.4173 041.2612 14.94503121247766
0 COSMOS 2251 DEB
1 34684U 93036YE  13295.49662610  .00067739  00000-0  60607-2 0  4224
2 34684 073.9737 311.4443 0048096 106.0542 043.0219 14.94604295247914
